{
  "norad_id": 59843,
  "name": "STARLINK-31857",
  "history": [
    {
      "epoch": "2026-03-28T14:29:50.909280Z",
      "apogee_km": 483.5119979917372,
      "perigee_km": 482.44166423408296,
      "latitude_deg": 5.7199756993776656e-05,
      "longitude_deg": 123.69651304923588,
      "height_km": 482.67710355906075,
      "semi_major_axis_km": 6861.11383111291,
      "eccentricity": 7.8e-05,
      "inclination_deg": 43.003,
      "raan_deg": 167.1807,
      "arg_perigee_deg": 278.1879,
      "mean_anomaly_deg": 81.8885,
      "mean_motion_rev_day": 15.27604134
    },
    {
      "epoch": "2026-03-29T21:52:59.445696Z",
      "apogee_km": 483.65070007332815,
      "perigee_km": 482.49115593349507,
      "latitude_deg": 2.9098102488395786e-05,
      "longitude_deg": 4.237849910255498,
      "height_km": 482.63304712886827,
      "semi_major_axis_km": 6861.207928003411,
      "eccentricity": 8.45e-05,
      "inclination_deg": 43.0006,
      "raan_deg": 159.7966,
      "arg_perigee_deg": 291.6759,
      "mean_anomaly_deg": 68.4003,
      "mean_motion_rev_day": 15.27572709
    }
  ]
}